STARLINK-2104
1 47384U 21005AM  26092.83335647  .00081230  00000+0  48276-2 0  9994
2 47384  53.0684 283.4469 0002470  99.0735 109.6669 15.10575660  5723
